IDEFIX & ARIANE 42P R/B 
1 27422U 02021B   26038.43005293  .00000440  00000+0  18375-3 0  9991
2 27422  98.5841 337.4041 0010705 278.2398  81.7571 14.31004261239698
AQUA                    
1 27424U 02022A   26038.51071250  .00001539  00000+0  31740-3 0  9990
2 27424  98.4122   5.3393 0001550  53.9786  56.7592 14.61901774264320
CZ-4B R/B               
1 27432U 02024C   26038.16340655  .00000049  00000+0  48111-4 0  9996
2 27432  98.8905  91.7139 0051134 109.4703 318.3857 14.14542108224921
MIDORI II (ADEOS-II)    
1 27597U 02056A   26038.49139294  .00000476  00000+0  20490-3 0  9997
2 27597  98.7718 356.7713 0002127  85.4201 274.7224 14.29262072205983
H-2A R/B                
1 27601U 02056E   26038.49874326  .00000452  00000+0  17318-3 0  9994
2 27601  98.3148   0.0240 0069031 251.3578 218.1710 14.33739137209784
CZ-4B R/B               
1 28059U 03049C   26038.46927887  .00000695  00000+0  17090-3 0  9999
2 28059  98.6848  32.1967 0047528 325.1541  34.6545 14.54986776182201
CZ-2C R/B               
1 28222U 04012C   26038.12848833  .00059506  00000+0  70099-3 0  9991
2 28222  97.7303 100.6009 0016151  65.7418 294.5523 15.61045570199506
SL-16 R/B               
1 28353U 04021B   26038.12129682  .00000069  00000+0  60672-4 0  9997
2 28353  71.0002 296.6458 0002884  86.3594 273.7859 14.14589586118518
CZ-4B R/B               
1 28415U 04035C   26038.08034428  .00010666  00000+0  38051-3 0  9998
2 28415  97.3549  72.6960 0034212  78.1951 282.3123 15.28497441175236
CZ-2C R/B               
1 28480U 04046B   26038.33437323  .00000216  00000+0  95829-4 0  9998
2 28480  98.1996 315.2035 0138264 244.4803 114.2027 14.26981365104179
ARIANE 5 R/B            
1 28499U 04049H   26038.45099984  .00001430  00000+0  16319-3 0  9996
2 28499  98.2578 205.7872 0085501  89.1372 271.9637 14.85203859141302
CZ-2D R/B               
1 28738U 05024B   26038.47283431  .00048666  00000+0  65941-3 0  9997
2 28738  97.3621  52.5737 0007318 119.6798 240.5186 15.57511823135077
