CCSDS_OMM_VERS = 2.0
CREATION_DATE  = 
ORIGINATOR     = 

OBJECT_NAME    = IDEFIX & ARIANE 42P R/B
OBJECT_ID      = 2002-021B
CENTER_NAME    = EARTH
REF_FRAME      = TEME
TIME_SYSTEM    = UTC
MEAN_ELEMENT_THEORY = SGP/SGP4

EPOCH          = 2026-02-07T10:19:16.573152
MEAN_MOTION    = 14.31004261
ECCENTRICITY   = .0010705
INCLINATION    = 98.5841
RA_OF_ASC_NODE = 337.4041
ARG_OF_PERICENTER = 278.2398
MEAN_ANOMALY   = 81.7571

EPHEMERIS_TYPE = 0
CLASSIFICATION_TYPE = U
NORAD_CAT_ID   = 27422
ELEMENT_SET_NO = 999
REV_AT_EPOCH   = 23969
BSTAR          = .18375E-3
MEAN_MOTION_DOT = .44E-5
MEAN_MOTION_DDOT = 0

CCSDS_OMM_VERS = 2.0
CREATION_DATE  = 
ORIGINATOR     = 

OBJECT_NAME    = AQUA
OBJECT_ID      = 2002-022A
CENTER_NAME    = EARTH
REF_FRAME      = TEME
TIME_SYSTEM    = UTC
MEAN_ELEMENT_THEORY = SGP/SGP4

EPOCH          = 2026-02-07T12:15:25.560000
MEAN_MOTION    = 14.61901774
ECCENTRICITY   = .000155
INCLINATION    = 98.4122
RA_OF_ASC_NODE = 5.3393
ARG_OF_PERICENTER = 53.9786
MEAN_ANOMALY   = 56.7592

EPHEMERIS_TYPE = 0
CLASSIFICATION_TYPE = U
NORAD_CAT_ID   = 27424
ELEMENT_SET_NO = 999
REV_AT_EPOCH   = 26432
BSTAR          = .3174E-3
MEAN_MOTION_DOT = .1539E-4
MEAN_MOTION_DDOT = 0

CCSDS_OMM_VERS = 2.0
CREATION_DATE  = 
ORIGINATOR     = 

OBJECT_NAME    = CZ-4B R/B
OBJECT_ID      = 2002-024C
CENTER_NAME    = EARTH
REF_FRAME      = TEME
TIME_SYSTEM    = UTC
MEAN_ELEMENT_THEORY = SGP/SGP4

EPOCH          = 2026-02-07T03:55:18.325920
MEAN_MOTION    = 14.14542108
ECCENTRICITY   = .00511345
INCLINATION    = 98.8905
RA_OF_ASC_NODE = 91.7139
ARG_OF_PERICENTER = 109.4703
MEAN_ANOMALY   = 318.3857

EPHEMERIS_TYPE = 0
CLASSIFICATION_TYPE = U
NORAD_CAT_ID   = 27432
ELEMENT_SET_NO = 999
REV_AT_EPOCH   = 22492
BSTAR          = .48111346E-4
MEAN_MOTION_DOT = .49E-6
MEAN_MOTION_DDOT = 0

CCSDS_OMM_VERS = 2.0
CREATION_DATE  = 
ORIGINATOR     = 

OBJECT_NAME    = MIDORI II (ADEOS-II)
OBJECT_ID      = 2002-056A
CENTER_NAME    = EARTH
REF_FRAME      = TEME
TIME_SYSTEM    = UTC
MEAN_ELEMENT_THEORY = SGP/SGP4

EPOCH          = 2026-02-07T11:47:36.350016
MEAN_MOTION    = 14.29262072
ECCENTRICITY   = .0002127
INCLINATION    = 98.7718
RA_OF_ASC_NODE = 356.7713
ARG_OF_PERICENTER = 85.4201
MEAN_ANOMALY   = 274.7224

EPHEMERIS_TYPE = 0
CLASSIFICATION_TYPE = U
NORAD_CAT_ID   = 27597
ELEMENT_SET_NO = 999
REV_AT_EPOCH   = 20598
BSTAR          = .2049E-3
MEAN_MOTION_DOT = .476E-5
MEAN_MOTION_DDOT = 0

CCSDS_OMM_VERS = 2.0
CREATION_DATE  = 
ORIGINATOR     = 

OBJECT_NAME    = H-2A R/B
OBJECT_ID      = 2002-056E
CENTER_NAME    = EARTH
REF_FRAME      = TEME
TIME_SYSTEM    = UTC
MEAN_ELEMENT_THEORY = SGP/SGP4

EPOCH          = 2026-02-07T11:58:11.417664
MEAN_MOTION    = 14.33739137
ECCENTRICITY   = .0069031
INCLINATION    = 98.3148
RA_OF_ASC_NODE = 0.0240
ARG_OF_PERICENTER = 251.3578
MEAN_ANOMALY   = 218.1710

EPHEMERIS_TYPE = 0
CLASSIFICATION_TYPE = U
NORAD_CAT_ID   = 27601
ELEMENT_SET_NO = 999
REV_AT_EPOCH   = 20978
BSTAR          = .17318E-3
MEAN_MOTION_DOT = .452E-5
MEAN_MOTION_DDOT = 0

CCSDS_OMM_VERS = 2.0
CREATION_DATE  = 
ORIGINATOR     = 

OBJECT_NAME    = CZ-4B R/B
OBJECT_ID      = 2003-049C
CENTER_NAME    = EARTH
REF_FRAME      = TEME
TIME_SYSTEM    = UTC
MEAN_ELEMENT_THEORY = SGP/SGP4

EPOCH          = 2026-02-07T11:15:45.694368
MEAN_MOTION    = 14.54986776
ECCENTRICITY   = .0047528
INCLINATION    = 98.6848
RA_OF_ASC_NODE = 32.1967
ARG_OF_PERICENTER = 325.1541
MEAN_ANOMALY   = 34.6545

EPHEMERIS_TYPE = 0
CLASSIFICATION_TYPE = U
NORAD_CAT_ID   = 28059
ELEMENT_SET_NO = 999
REV_AT_EPOCH   = 18220
BSTAR          = .1709E-3
MEAN_MOTION_DOT = .695E-5
MEAN_MOTION_DDOT = 0

CCSDS_OMM_VERS = 2.0
CREATION_DATE  = 
ORIGINATOR     = 

OBJECT_NAME    = CZ-2C R/B
OBJECT_ID      = 2004-012C
CENTER_NAME    = EARTH
REF_FRAME      = TEME
TIME_SYSTEM    = UTC
MEAN_ELEMENT_THEORY = SGP/SGP4

EPOCH          = 2026-02-07T03:05:01.391712
MEAN_MOTION    = 15.61045570
ECCENTRICITY   = .00161514
INCLINATION    = 97.7303
RA_OF_ASC_NODE = 100.6009
ARG_OF_PERICENTER = 65.7418
MEAN_ANOMALY   = 294.5523

EPHEMERIS_TYPE = 0
CLASSIFICATION_TYPE = U
NORAD_CAT_ID   = 28222
ELEMENT_SET_NO = 999
REV_AT_EPOCH   = 19950
BSTAR          = .70098539E-3
MEAN_MOTION_DOT = .59506E-3
MEAN_MOTION_DDOT = 0

CCSDS_OMM_VERS = 2.0
CREATION_DATE  = 
ORIGINATOR     = 

OBJECT_NAME    = SL-16 R/B
OBJECT_ID      = 2004-021B
CENTER_NAME    = EARTH
REF_FRAME      = TEME
TIME_SYSTEM    = UTC
MEAN_ELEMENT_THEORY = SGP/SGP4

EPOCH          = 2026-02-07T02:54:40.045248
MEAN_MOTION    = 14.14589586
ECCENTRICITY   = .00028848
INCLINATION    = 71.0002
RA_OF_ASC_NODE = 296.6458
ARG_OF_PERICENTER = 86.3594
MEAN_ANOMALY   = 273.7859

EPHEMERIS_TYPE = 0
CLASSIFICATION_TYPE = U
NORAD_CAT_ID   = 28353
ELEMENT_SET_NO = 999
REV_AT_EPOCH   = 11851
BSTAR          = .60672468E-4
MEAN_MOTION_DOT = .69E-6
MEAN_MOTION_DDOT = 0

CCSDS_OMM_VERS = 2.0
CREATION_DATE  = 
ORIGINATOR     = 

OBJECT_NAME    = CZ-4B R/B
OBJECT_ID      = 2004-035C
CENTER_NAME    = EARTH
REF_FRAME      = TEME
TIME_SYSTEM    = UTC
MEAN_ELEMENT_THEORY = SGP/SGP4

EPOCH          = 2026-02-07T01:55:41.745792
MEAN_MOTION    = 15.28497441
ECCENTRICITY   = .00342124
INCLINATION    = 97.3549
RA_OF_ASC_NODE = 72.6960
ARG_OF_PERICENTER = 78.1951
MEAN_ANOMALY   = 282.3123

EPHEMERIS_TYPE = 0
CLASSIFICATION_TYPE = U
NORAD_CAT_ID   = 28415
ELEMENT_SET_NO = 999
REV_AT_EPOCH   = 17523
BSTAR          = .3805071E-3
MEAN_MOTION_DOT = .10666E-3
MEAN_MOTION_DDOT = 0

CCSDS_OMM_VERS = 2.0
CREATION_DATE  = 
ORIGINATOR     = 

OBJECT_NAME    = CZ-2C R/B
OBJECT_ID      = 2004-046B
CENTER_NAME    = EARTH
REF_FRAME      = TEME
TIME_SYSTEM    = UTC
MEAN_ELEMENT_THEORY = SGP/SGP4

EPOCH          = 2026-02-07T08:01:29.847072
MEAN_MOTION    = 14.26981365
ECCENTRICITY   = .0138264
INCLINATION    = 98.1996
RA_OF_ASC_NODE = 315.2035
ARG_OF_PERICENTER = 244.4803
MEAN_ANOMALY   = 114.2027

EPHEMERIS_TYPE = 0
CLASSIFICATION_TYPE = U
NORAD_CAT_ID   = 28480
ELEMENT_SET_NO = 999
REV_AT_EPOCH   = 10417
BSTAR          = .95829E-4
MEAN_MOTION_DOT = .216E-5
MEAN_MOTION_DDOT = 0

CCSDS_OMM_VERS = 2.0
CREATION_DATE  = 
ORIGINATOR     = 

OBJECT_NAME    = ARIANE 5 R/B
OBJECT_ID      = 2004-049H
CENTER_NAME    = EARTH
REF_FRAME      = TEME
TIME_SYSTEM    = UTC
MEAN_ELEMENT_THEORY = SGP/SGP4

EPOCH          = 2026-02-07T10:49:26.386176
MEAN_MOTION    = 14.85203859
ECCENTRICITY   = .0085501
INCLINATION    = 98.2578
RA_OF_ASC_NODE = 205.7872
ARG_OF_PERICENTER = 89.1372
MEAN_ANOMALY   = 271.9637

EPHEMERIS_TYPE = 0
CLASSIFICATION_TYPE = U
NORAD_CAT_ID   = 28499
ELEMENT_SET_NO = 999
REV_AT_EPOCH   = 14130
BSTAR          = .16319E-3
MEAN_MOTION_DOT = .143E-4
MEAN_MOTION_DDOT = 0

CCSDS_OMM_VERS = 2.0
CREATION_DATE  = 
ORIGINATOR     = 

OBJECT_NAME    = CZ-2D R/B
OBJECT_ID      = 2005-024B
CENTER_NAME    = EARTH
REF_FRAME      = TEME
TIME_SYSTEM    = UTC
MEAN_ELEMENT_THEORY = SGP/SGP4

EPOCH          = 2026-02-07T11:20:52.884384
MEAN_MOTION    = 15.57511823
ECCENTRICITY   = .0007318
INCLINATION    = 97.3621
RA_OF_ASC_NODE = 52.5737
ARG_OF_PERICENTER = 119.6798
MEAN_ANOMALY   = 240.5186

EPHEMERIS_TYPE = 0
CLASSIFICATION_TYPE = U
NORAD_CAT_ID   = 28738
ELEMENT_SET_NO = 999
REV_AT_EPOCH   = 13507
BSTAR          = .65941E-3
MEAN_MOTION_DOT = .48666E-3
MEAN_MOTION_DDOT = 0

